{
    "links": {
        "self": "http://www.neowsapp.com/rest/v1/neo/3747312?api_key=iIulBulltgU6a56xZRHN4H3l9WmuAYTsLGpBGhQ2"
    },
    "id": "3747312",
    "neo_reference_id": "3747312",
    "name": "(2016 EL157)",
    "designation": "2016 EL157",
    "nasa_jpl_url": "http://ssd.jpl.nasa.gov/sbdb.cgi?sstr=3747312",
    "absolute_magnitude_h": 27.1,
    "estimated_diameter": {
        "kilometers": {
            "estimated_diameter_min": 0.0101054342,
            "estimated_diameter_max": 0.0225964377
        },
        "meters": {
            "estimated_diameter_min": 10.1054341542,
            "estimated_diameter_max": 22.5964377109
        },
        "miles": {
            "estimated_diameter_min": 0.0062792237,
            "estimated_diameter_max": 0.0140407711
        },
        "feet": {
            "estimated_diameter_min": 33.1543125905,
            "estimated_diameter_max": 74.1352966996
        }
    },
    "is_potentially_hazardous_asteroid": false,
    "close_approach_data": [
        {
            "close_approach_date": "2016-03-18",
            "close_approach_date_full": "2016-Mar-18 11:51",
            "epoch_date_close_approach": 1458301860000,
            "relative_velocity": {
                "kilometers_per_second": "11.5107821853",
                "kilometers_per_hour": "41438.8158672244",
                "miles_per_hour": "25748.4686703873"
            },
            "miss_distance": {
                "astronomical": "0.0116717703",
                "lunar": "4.5403186467",
                "kilometers": "1746071.976009261",
                "miles": "1084958.8156833618"
            },
            "orbiting_body": "Earth"
        },
        {
            "close_approach_date": "2024-07-14",
            "close_approach_date_full": "2024-Jul-14 13:03",
            "epoch_date_close_approach": 1720962180000,
            "relative_velocity": {
                "kilometers_per_second": "21.7998306594",
                "kilometers_per_hour": "78479.390373953",
                "miles_per_hour": "48764.0412020821"
            },
            "miss_distance": {
                "astronomical": "0.3954966424",
                "lunar": "153.8481938936",
                "kilometers": "59165455.295191688",
                "miles": "36763709.1645857744"
            },
            "orbiting_body": "Earth"
        },
        {
            "close_approach_date": "2100-02-18",
            "close_approach_date_full": "2100-Feb-18 02:53",
            "epoch_date_close_approach": 4106602380000,
            "relative_velocity": {
                "kilometers_per_second": "24.3791445698",
                "kilometers_per_hour": "87764.9204514107",
                "miles_per_hour": "54533.7084882668"
            },
            "miss_distance": {
                "astronomical": "0.4482018942",
                "lunar": "174.3505368438",
                "kilometers": "67050048.702285354",
                "miles": "41662968.3260877252"
            },
            "orbiting_body": "Earth"
        }
    ],
    "orbital_data": {
        "orbit_id": "10",
        "orbit_determination_date": "2018-02-10 07:07:46",
        "first_observation_date": "2016-03-13",
        "last_observation_date": "2016-03-19",
        "data_arc_in_days": 6,
        "observations_used": 113,
        "orbit_uncertainty": "7",
        "minimum_orbit_intersection": ".00743506",
        "jupiter_tisserand_invariant": "3.709",
        "epoch_osculation": "2459000.5",
        "eccentricity": ".5270381795029522",
        "semi_major_axis": "1.942634057565487",
        "inclination": "7.166491903589978",
        "ascending_node_longitude": "176.2461668845047",
        "orbital_period": "988.9741143428437",
        "perihelion_distance": ".9187917404257393",
        "perihelion_argument": "43.02783100795795",
        "aphelion_distance": "2.966476374705234",
        "perihelion_time": "2459475.299928590536",
        "mean_anomaly": "187.1663819975999",
        "mean_motion": ".3640135720227762",
        "equinox": "J2000",
        "orbit_class": {
            "orbit_class_type": "APO",
            "orbit_class_description": "Near-Earth asteroid orbits which cross the Earth’s orbit similar to that of 1862 Apollo",
            "orbit_class_range": "a (semi-major axis) > 1.0 AU; q (perihelion) < 1.017 AU"
        }
    },
    "is_sentry_object": false
}